{
  "norad_id": 57789,
  "name": "STARLINK-30372",
  "history": [
    {
      "epoch": "2026-03-28T16:28:21.218016Z",
      "apogee_km": 484.0464631379982,
      "perigee_km": 482.1303973243512,
      "latitude_deg": -4.8183058814281796e-05,
      "longitude_deg": -102.09629964750029,
      "height_km": 482.8952922894218,
      "semi_major_axis_km": 6861.225430231174,
      "eccentricity": 0.00013963,
      "inclination_deg": 43.002,
      "raan_deg": 331.0954,
      "arg_perigee_deg": 268.2092,
      "mean_anomaly_deg": 91.8599,
      "mean_motion_rev_day": 15.27566864
    },
    {
      "epoch": "2026-03-29T01:53:17.623680Z",
      "apogee_km": 483.9295366749693,
      "perigee_km": 482.2169785946635,
      "latitude_deg": -1.767937283210058e-05,
      "longitude_deg": 114.06612144380358,
      "height_km": 482.9306342586386,
      "semi_major_axis_km": 6861.210257634816,
      "eccentricity": 0.0001248,
      "inclination_deg": 43.0015,
      "raan_deg": 328.8795,
      "arg_perigee_deg": 264.5956,
      "mean_anomaly_deg": 95.4753,
      "mean_motion_rev_day": 15.27571931
    },
    {
      "epoch": "2026-03-29T23:51:29.374272Z",
      "apogee_km": 484.0064235385944,
      "perigee_km": 482.124532922865,
      "latitude_deg": 3.079345795120289e-05,
      "longitude_deg": 138.44503980593927,
      "height_km": 482.95158094011185,
      "semi_major_axis_km": 6861.202478230729,
      "eccentricity": 0.00013714,
      "inclination_deg": 43.0015,
      "raan_deg": 323.7096,
      "arg_perigee_deg": 263.3305,
      "mean_anomaly_deg": 96.7391,
      "mean_motion_rev_day": 15.27574529
    },
    {
      "epoch": "2026-03-30T21:49:41.466144Z",
      "apogee_km": 484.00077327836516,
      "perigee_km": 482.16992470675905,
      "latitude_deg": -2.4024104647362304e-05,
      "longitude_deg": 162.82312271535034,
      "height_km": 482.9446056308325,
      "semi_major_axis_km": 6861.222348992562,
      "eccentricity": 0.00013342,
      "inclination_deg": 43.0005,
      "raan_deg": 318.5404,
      "arg_perigee_deg": 264.8252,
      "mean_anomaly_deg": 95.2447,
      "mean_motion_rev_day": 15.27567893
    },
    {
      "epoch": "2026-03-31T21:22:02.688096Z",
      "apogee_km": 484.0109834872019,
      "perigee_km": 482.13924482246057,
      "latitude_deg": 4.5364795739903984e-05,
      "longitude_deg": 163.23085151000328,
      "height_km": 482.8338498489797,
      "semi_major_axis_km": 6861.212114154831,
      "eccentricity": 0.0001364,
      "inclination_deg": 43.0015,
      "raan_deg": 313.0032,
      "arg_perigee_deg": 271.1083,
      "mean_anomaly_deg": 88.9613,
      "mean_motion_rev_day": 15.27571311
    },
    {
      "epoch": "2026-04-01T20:54:23.014080Z",
      "apogee_km": 484.00727871781964,
      "perigee_km": 482.0710548035604,
      "latitude_deg": 4.312374538490847e-06,
      "longitude_deg": 163.63920582542607,
      "height_km": 482.80027922960176,
      "semi_major_axis_km": 6861.17616676069,
      "eccentricity": 0.0001411,
      "inclination_deg": 43.0007,
      "raan_deg": 307.463,
      "arg_perigee_deg": 270.9279,
      "mean_anomaly_deg": 89.1411,
      "mean_motion_rev_day": 15.27583316
    },
    {
      "epoch": "2026-04-02T20:26:43.376352Z",
      "apogee_km": 484.0802391891257,
      "perigee_km": 481.96562969732895,
      "latitude_deg": 5.472565871343253e-05,
      "longitude_deg": 164.04800559052504,
      "height_km": 482.75242709787403,
      "semi_major_axis_km": 6861.159934443227,
      "eccentricity": 0.0001541,
      "inclination_deg": 43.0013,
      "raan_deg": 301.9233,
      "arg_perigee_deg": 272.5732,
      "mean_anomaly_deg": 87.4944,
      "mean_motion_rev_day": 15.27588737
    },
    {
      "epoch": "2026-04-02T22:00:52.695648Z",
      "apogee_km": 484.0909301594038,
      "perigee_km": 481.9516210090769,
      "latitude_deg": -1.355007431671465e-05,
      "longitude_deg": 140.0750553994646,
      "height_km": 482.7421994394063,
      "semi_major_axis_km": 6861.15827558424,
      "eccentricity": 0.0001559,
      "inclination_deg": 43.0008,
      "raan_deg": 301.5537,
      "arg_perigee_deg": 273.0012,
      "mean_anomaly_deg": 87.0661,
      "mean_motion_rev_day": 15.27589291
    },
    {
      "epoch": "2026-04-03T18:24:55.070784Z",
      "apogee_km": 484.133473396696,
      "perigee_km": 481.97219859835604,
      "latitude_deg": -8.979751433054032e-06,
      "longitude_deg": -171.57276145216696,
      "height_km": 482.8388681797322,
      "semi_major_axis_km": 6861.189835997526,
      "eccentricity": 0.0001575,
      "inclination_deg": 43.0006,
      "raan_deg": 296.7536,
      "arg_perigee_deg": 269.5164,
      "mean_anomaly_deg": 90.5507,
      "mean_motion_rev_day": 15.27578751
    },
    {
      "epoch": "2026-04-04T14:48:57.254112Z",
      "apogee_km": 484.03471726155294,
      "perigee_km": 482.0971135582413,
      "latitude_deg": -2.167323819507352e-05,
      "longitude_deg": -123.22259593062508,
      "height_km": 483.01186960827005,
      "semi_major_axis_km": 6861.202915409896,
      "eccentricity": 0.0001412,
      "inclination_deg": 43.0003,
      "raan_deg": 291.9507,
      "arg_perigee_deg": 259.9389,
      "mean_anomaly_deg": 100.1303,
      "mean_motion_rev_day": 15.27574383
    },
    {
      "epoch": "2026-04-05T12:47:09.018528Z",
      "apogee_km": 484.14782567482507,
      "perigee_km": 481.97790260579313,
      "latitude_deg": -2.974892640263977e-05,
      "longitude_deg": -98.84169741019139,
      "height_km": 482.8271677428372,
      "semi_major_axis_km": 6861.199864140309,
      "eccentricity": 0.00015813,
      "inclination_deg": 43.0021,
      "raan_deg": 286.7829,
      "arg_perigee_deg": 270.6752,
      "mean_anomaly_deg": 89.3918,
      "mean_motion_rev_day": 15.27575402
    },
    {
      "epoch": "2026-04-07T11:51:51.481440Z",
      "apogee_km": 484.2169076534401,
      "perigee_km": 482.4421207248788,
      "latitude_deg": -3.3806785774985926e-05,
      "longitude_deg": -98.03157903871781,
      "height_km": 483.67899251700817,
      "semi_major_axis_km": 6861.466514189159,
      "eccentricity": 0.00012933,
      "inclination_deg": 42.9985,
      "raan_deg": 275.7034,
      "arg_perigee_deg": 130.4202,
      "mean_anomaly_deg": 229.6762,
      "mean_motion_rev_day": 15.27486356
    },
    {
      "epoch": "2026-04-07T19:42:39.519072Z",
      "apogee_km": 484.0087424797457,
      "perigee_km": 482.6364505604415,
      "latitude_deg": 4.049320720165512e-05,
      "longitude_deg": 142.1027908578302,
      "height_km": 482.8905761454809,
      "semi_major_axis_km": 6861.459596520093,
      "eccentricity": 0.0001,
      "inclination_deg": 43.0032,
      "raan_deg": 273.8601,
      "arg_perigee_deg": 287.7103,
      "mean_anomaly_deg": 72.364,
      "mean_motion_rev_day": 15.27488666
    },
    {
      "epoch": "2026-04-08T11:24:11.519712Z",
      "apogee_km": 483.86467341330444,
      "perigee_km": 482.24282514398965,
      "latitude_deg": 5.194532966909874e-05,
      "longitude_deg": -97.61809159453217,
      "height_km": 482.8088727069967,
      "semi_major_axis_km": 6861.190749278647,
      "eccentricity": 0.00011819,
      "inclination_deg": 43.0025,
      "raan_deg": 270.167,
      "arg_perigee_deg": 271.5313,
      "mean_anomaly_deg": 88.5404,
      "mean_motion_rev_day": 15.27578446
    },
    {
      "epoch": "2026-04-09T20:21:29.363328Z",
      "apogee_km": 483.76953007415705,
      "perigee_km": 482.59157907638837,
      "latitude_deg": 3.83726154599798e-05,
      "longitude_deg": 118.95152946600521,
      "height_km": 482.98886814359884,
      "semi_major_axis_km": 6861.317554575273,
      "eccentricity": 8.584e-05,
      "inclination_deg": 43.005,
      "raan_deg": 262.4144,
      "arg_perigee_deg": 266.9314,
      "mean_anomaly_deg": 93.144,
      "mean_motion_rev_day": 15.27536099
    },
    {
      "epoch": "2026-04-11T19:26:10.427424Z",
      "apogee_km": 484.114048387818,
      "perigee_km": 482.05019367621026,
      "latitude_deg": -1.2542299197265808e-06,
      "longitude_deg": 119.76785495472704,
      "height_km": 483.0027091460957,
      "semi_major_axis_km": 6861.219121032013,
      "eccentricity": 0.0001504,
      "inclination_deg": 43.0047,
      "raan_deg": 251.3353,
      "arg_perigee_deg": 262.0173,
      "mean_anomaly_deg": 98.0508,
      "mean_motion_rev_day": 15.27568971
    },
    {
      "epoch": "2026-04-13T02:49:17.596128Z",
      "apogee_km": 484.0539141305726,
      "perigee_km": 482.0107951201535,
      "latitude_deg": 3.429985945509224e-05,
      "longitude_deg": 0.31317304835868814,
      "height_km": 482.9815007434366,
      "semi_major_axis_km": 6861.169354625363,
      "eccentricity": 0.00014889,
      "inclination_deg": 43.0029,
      "raan_deg": 243.9494,
      "arg_perigee_deg": 260.3016,
      "mean_anomaly_deg": 99.7668,
      "mean_motion_rev_day": 15.27585591
    },
    {
      "epoch": "2026-04-14T16:29:03.560064Z",
      "apogee_km": 483.9862429347386,
      "perigee_km": 482.1433241356799,
      "latitude_deg": -5.4485331090070776e-05,
      "longitude_deg": 144.96130861828723,
      "height_km": 482.94860384192293,
      "semi_major_axis_km": 6861.201783535209,
      "eccentricity": 0.0001343,
      "inclination_deg": 43.0023,
      "raan_deg": 235.0859,
      "arg_perigee_deg": 263.3364,
      "mean_anomaly_deg": 96.7334,
      "mean_motion_rev_day": 15.27574761
    },
    {
      "epoch": "2026-04-15T16:01:23.174976Z",
      "apogee_km": 484.0394056600617,
      "perigee_km": 481.9371568738825,
      "latitude_deg": 7.318145085814435e-06,
      "longitude_deg": 145.37344410811082,
      "height_km": 483.00768797619355,
      "semi_major_axis_km": 6861.125281266972,
      "eccentricity": 0.0001532,
      "inclination_deg": 43.0048,
      "raan_deg": 229.5464,
      "arg_perigee_deg": 256.682,
      "mean_anomaly_deg": 103.3861,
      "mean_motion_rev_day": 15.2760031
    },
    {
      "epoch": "2026-04-16T01:26:20.095584Z",
      "apogee_km": 483.9967333843215,
      "perigee_km": 482.12760550658095,
      "latitude_deg": 4.963976910311869e-05,
      "longitude_deg": 1.5344271849940168,
      "height_km": 483.0657591514976,
      "semi_major_axis_km": 6861.199169445451,
      "eccentricity": 0.00013621,
      "inclination_deg": 43.0044,
      "raan_deg": 227.3312,
      "arg_perigee_deg": 255.9742,
      "mean_anomaly_deg": 104.0959,
      "mean_motion_rev_day": 15.27575634
    },
    {
      "epoch": "2026-04-17T16:40:14.831040Z",
      "apogee_km": 483.9296151943454,
      "perigee_km": 482.18357864780046,
      "latitude_deg": -5.1856238416305964e-05,
      "longitude_deg": 122.21346145143917,
      "height_km": 483.0787049553683,
      "semi_major_axis_km": 6861.193596921073,
      "eccentricity": 0.00012724,
      "inclination_deg": 43.003,
      "raan_deg": 218.0996,
      "arg_perigee_deg": 253.6847,
      "mean_anomaly_deg": 106.3864,
      "mean_motion_rev_day": 15.27577495
    },
    {
      "epoch": "2026-04-18T14:38:25.567296Z",
      "apogee_km": 483.9387977595361,
      "perigee_km": 482.1439135017026,
      "latitude_deg": -1.0770389411962825e-06,
      "longitude_deg": 146.59642012492785,
      "height_km": 483.02971840471946,
      "semi_major_axis_km": 6861.178355630619,
      "eccentricity": 0.0001308,
      "inclination_deg": 43.0026,
      "raan_deg": 212.9295,
      "arg_perigee_deg": 256.3683,
      "mean_anomaly_deg": 103.7023,
      "mean_motion_rev_day": 15.27582585
    }
  ]
}